FORMOSAT 7-2            
1 44351U 19036N   26068.46036694  .00003823  00000+0  30629-3 0  9994
2 44351  23.9982 100.9036 0000971  99.0828 260.9782 14.96019264368636
STARLINK-5463           
1 55673U 23021AX  26068.66863471 -.00000813  00000+0 -60335-4 0  9991
2 55673  70.0007 164.4187 0003344 270.3234  89.7542 14.98331273169280
